NORAD_CAT_ID,OBJECT_NAME,OBJECT_TYPE,EPOCH,MEAN_MOTION,ECCENTRICITY,INCLINATION,RA_OF_ASC_NODE,ARG_OF_PERICENTER,MEAN_ANOMALY,BSTAR,MEAN_MOTION_DOT,MEAN_MOTION_DDOT,TLE_LINE0,TLE_LINE1,TLE_LINE2,SEMIMAJOR_AXIS,PERIOD,APOGEE,PERIGEE,DECAYED
54779.0,STARLINK-5447,PAYLOAD,2023-04-11 18:32:00,15.08841851,0.0001523,53.2177,120.8434,86.6079,273.5088,8.0353e-05,9.91e-06,0.0,0 STARLINK-5447,1 54779U 22175X   23101.77222817  .00000991  00000-0  80353-4 0  9994,2 54779  53.2177 120.8434 0001523  86.6079 273.5088 15.08841851 19664,6917.875,95.437,540.793,538.686,0.0
54779.0,STARLINK-5447,PAYLOAD,2023-04-12 08:50:28,15.08838667,0.0001406,53.2171,118.1666,90.8479,269.2674,7.635e-05,9.27e-06,0.0,0 STARLINK-5447,1 54779U 22175X   23102.36839112  .00000927  00000-0  76350-4 0  9993,2 54779  53.2171 118.1666 0001406  90.8479 269.2674 15.08838667 19750,6917.884,95.438,540.722,538.777,0.0
54779.0,STARLINK-5447,PAYLOAD,2023-04-13 10:16:39,15.08841402,0.0001517,53.2169,113.4084,90.9266,269.19,2.5699e-05,1.21e-06,0.0,0 STARLINK-5447,1 54779U 22175X   23103.42823171  .00000121  00000-0  25699-4 0  9995,2 54779  53.2169 113.4084 0001517  90.9266 269.1900 15.08841402 19917,6917.876,95.437,540.791,538.692,0.0
54779.0,STARLINK-5447,PAYLOAD,2023-04-14 10:07:25,15.08848006,0.0001337,53.2165,108.9475,92.3558,267.7587,0.00013497,1.861e-05,0.0,0 STARLINK-5447,1 54779U 22175X   23104.42182352  .00001861  00000-0  13497-3 0  9999,2 54779  53.2165 108.9475 0001337  92.3558 267.7587 15.08848006 17905,6917.856,95.437,540.646,538.796,0.0
54779.0,STARLINK-5447,PAYLOAD,2023-04-15 06:47:26,15.08842444,0.0001248,53.2168,105.0819,95.7529,264.3605,8.8777e-05,1.125e-05,0.0,0 STARLINK-5447,1 54779U 22175X   23105.28295016  .00001125  00000-0  88777-4 0  9993,2 54779  53.2168 105.0819 0001248  95.7529 264.3605 15.08842444 20193,6917.873,95.437,540.601,538.875,0.0
54779.0,STARLINK-5447,PAYLOAD,2023-04-15 16:19:45,15.08841353,0.0001222,53.2167,103.2981,95.156,264.9572,5.1064e-05,5.25e-06,0.0,0 STARLINK-5447,1 54779U 22175X   23105.68039175  .00000525  00000-0  51064-4 0  9991,2 54779  53.2167 103.2981 0001222  95.1560 264.9572 15.08841353 20257,6917.876,95.437,540.587,538.896,0.0
54779.0,STARLINK-5447,PAYLOAD,2023-04-16 06:38:14,15.08839069,0.000129,53.2178,100.6244,92.3389,267.7751,4.4738e-05,4.24e-06,0.0,0 STARLINK-5447,1 54779U 22175X   23106.27655485  .00000424  00000-0  44738-4 0  9993,2 54779  53.2178 100.6244 0001290  92.3389 267.7751 15.08839069 20346,6917.883,95.438,540.641,538.856,0.0
54779.0,STARLINK-5447,PAYLOAD,2023-04-16 16:10:33,15.08841607,0.00013,53.2174,98.8405,97.0511,263.0629,-3.9987e-05,-9.24e-06,0.0,0 STARLINK-5447,1 54779U 22175X   23106.67399498 -.00000924  00000-0 -39987-4 0  9993,2 54779  53.2174  98.8405 0001300  97.0511 263.0629 15.08841607 20401,6917.875,95.437,540.64,538.841,0.0
54779.0,STARLINK-5447,PAYLOAD,2023-04-17 04:53:38,15.08836536,0.0001428,53.218,96.4618,101.6746,258.4407,8.4015e-05,1.049e-05,0.0,0 STARLINK-5447,1 54779U 22175X   23107.20391801  .00001049  00000-0  84015-4 0  9992,2 54779  53.2180  96.4618 0001428 101.6746 258.4407 15.08836536 20486,6917.891,95.438,540.744,538.768,0.0
54779.0,STARLINK-5447,PAYLOAD,2023-04-17 22:22:53,15.08838004,0.0001333,53.2188,93.1905,98.5121,261.6022,0.00013638,1.883e-05,0.0,0 STARLINK-5447,1 54779U 22175X   23107.93255825  .00001883  00000-0  13638-3 0  9995,2 54779  53.2188  93.1905 0001333  98.5121 261.6022 15.08838004 18436,6917.886,95.438,540.674,538.829,0.0
54779.0,STARLINK-5447,PAYLOAD,2023-04-18 09:30:35,15.08840517,0.0001366,53.2182,91.1068,92.7516,267.3632,0.0001184,1.597e-05,0.0,0 STARLINK-5447,1 54779U 22175X   23108.39623863  .00001597  00000-0  11840-3 0  9992,2 54779  53.2182  91.1068 0001366  92.7516 267.3632 15.08840517 20668,6917.879,95.438,540.689,538.799,0.0
54779.0,STARLINK-5447,PAYLOAD,2023-04-18 15:52:07,15.08836789,0.0001269,53.2177,89.9168,92.6758,267.4379,7.8035e-05,9.54e-06,0.0,0 STARLINK-5447,1 54779U 22175X   23108.66120204  .00000954  00000-0  78035-4 0  9999,2 54779  53.2177  89.9168 0001269  92.6758 267.4379 15.08836789 20707,6917.89,95.438,540.633,538.877,0.0
54779.0,STARLINK-5447,PAYLOAD,2023-04-19 07:45:58,15.08844261,0.0001221,53.2176,86.9425,87.2866,272.8266,9.7043e-05,1.257e-05,0.0,0 STARLINK-5447,1 54779U 22175X   23109.32359849  .00001257  00000-0  97043-4 0  9999,2 54779  53.2176  86.9425 0001221  87.2866 272.8266 15.08844261 20807,6917.867,95.437,540.577,538.888,0.0
54779.0,STARLINK-5447,PAYLOAD,2023-04-20 01:15:13,15.08840183,0.0001268,53.2172,83.6722,87.8029,272.3109,0.00010138,1.326e-05,0.0,0 STARLINK-5447,1 54779U 22175X   23110.05224091  .00001326  00000-0  10138-3 0  9997,2 54779  53.2172  83.6722 0001268  87.8029 272.3109 15.08840183 18756,6917.88,95.438,540.622,538.868,0.0
54779.0,STARLINK-5447,PAYLOAD,2023-04-20 07:36:45,15.08847285,0.0001167,53.2171,82.4826,81.0964,279.016,0.00012188,1.653e-05,0.0,0 STARLINK-5447,1 54779U 22175X   23110.31719587  .00001653  00000-0  12188-3 0  9995,2 54779  53.2171  82.4826 0001167  81.0964 279.0160 15.08847285 20955,6917.858,95.437,540.53,538.916,0.0
54779.0,STARLINK-5447,PAYLOAD,2023-04-20 15:33:42,15.0883257,0.0001559,53.2185,80.9953,86.8355,273.2816,1.1841e-05,-1e-06,0.0,0 STARLINK-5447,1 54779U 22175X   23110.64840933 -.00000100  00000-0  11841-4 0  9994,2 54779  53.2185  80.9953 0001559  86.8355 273.2816 15.08832570 18846,6917.903,95.438,540.847,538.69,0.0
54779.0,STARLINK-5447,PAYLOAD,2023-04-21 04:16:47,15.08833003,0.0001445,53.2177,78.6179,83.644,276.4716,1.3651e-05,-7.1e-07,0.0,0 STARLINK-5447,1 54779U 22175X   23111.17833105 -.00000071  00000-0  13651-4 0  9994,2 54779  53.2177  78.6179 0001445  83.6440 276.4716 15.08833003 21081,6917.902,95.438,540.766,538.767,0.0
54779.0,STARLINK-5447,PAYLOAD,2023-04-21 07:27:33,15.08836162,0.0001319,53.2186,78.0221,88.9833,271.1311,-2.1259e-05,-6.26e-06,0.0,0 STARLINK-5447,1 54779U 22175X   23111.31080968 -.00000626  00000-0 -21259-4 0  9991,2 54779  53.2186  78.0221 0001319  88.9833 271.1311 15.08836162 21102,6917.892,95.438,540.67,538.845,0.0
54779.0,STARLINK-5447,PAYLOAD,2023-04-22 23:12:12,15.08830336,8.93e-05,53.2192,70.5898,87.863,272.2465,0.00012068,1.633e-05,0.0,0 STARLINK-5447,1 54779U 22175X   23112.96680988  .00001633  00000-0  12068-3 0  9995,2 54779  53.2192  70.5898 0000893  87.8630 272.2465 15.08830336 19190,6917.91,95.438,540.393,539.157,0.0
54779.0,STARLINK-5447,PAYLOAD,2023-04-23 03:58:21,15.08842657,0.0001864,53.2152,69.6979,94.0245,266.096,0.00022859,3.352e-05,0.0,0 STARLINK-5447,1 54779U 22175X   23113.16552092  .00003352  00000-0  22859-3 0  9991,2 54779  53.2152  69.6979 0001864  94.0245 266.0960 15.08842657 21380,6917.872,95.437,541.027,538.448,0.0
54779.0,STARLINK-5447,PAYLOAD,2023-04-24 03:49:07,15.08855156,0.0001133,53.2175,65.2399,87.6738,272.4384,-5.2902e-05,-1.13e-05,0.0,0 STARLINK-5447,1 54779U 22175X   23114.15911574 -.00001130  00000-0 -52902-4 0  9992,2 54779  53.2175  65.2399 0001133  87.6738 272.4384 15.08855156 21533,6917.834,95.437,540.483,538.915,0.0
54779.0,STARLINK-5447,PAYLOAD,2023-04-25 03:39:53,15.08864754,0.0001329,53.2197,60.7803,100.1425,259.9717,0.00032802,4.94e-05,0.0,0 STARLINK-5447,1 54779U 22175X   23115.15270291  .00004940  00000-0  32802-3 0  9993,2 54779  53.2197  60.7803 0001329 100.1425 259.9717 15.08864754 19528,6917.805,95.436,540.589,538.75,0.0
54779.0,STARLINK-5447,PAYLOAD,2023-04-25 06:50:39,15.08873685,0.000135,53.2188,60.1839,97.681,262.4335,0.00053442,8.235e-05,0.0,0 STARLINK-5447,1 54779U 22175X   23115.28517889  .00008235  00000-0  53442-3 0  9998,2 54779  53.2188  60.1839 0001350  97.6810 262.4335 15.08873685 21704,6917.777,95.435,540.576,538.709,0.0
54779.0,STARLINK-5447,PAYLOAD,2023-04-26 01:55:18,15.08816395,0.0001296,53.2185,56.6157,85.9988,274.1152,-0.00060456,-9.89e-05,0.0,0 STARLINK-5447,1 54779U 22175X   23116.08007997 -.00009890  00000-0 -60456-3 0  9994,2 54779  53.2185  56.6157 0001296  85.9988 274.1152 15.08816395 19663,6917.953,95.439,540.714,538.921,0.0
54779.0,STARLINK-5447,PAYLOAD,2023-04-26 03:30:42,15.08814544,0.0001143,53.218,56.3187,110.4726,249.6389,-0.00062362,-0.00010192,0.0,0 STARLINK-5447,1 54779U 22175X   23116.14632037 -.00010192  00000-0 -62362-3 0  9995,2 54779  53.2180  56.3187 0001143 110.4726 249.6389 15.08814544 21838,6917.958,95.439,540.614,539.032,0.0
54779.0,STARLINK-5447,PAYLOAD,2023-04-27 01:46:07,15.08812551,0.0001219,53.2174,52.1532,91.268,268.8452,1.689e-05,-1.9e-07,0.0,0 STARLINK-5447,1 54779U 22175X   23117.07369553 -.00000019  00000-0  16890-4 0  9990,2 54779  53.2174  52.1532 0001219  91.2680 268.8452 15.08812551 19813,6917.964,95.439,540.673,538.986,0.0
54779.0,STARLINK-5447,PAYLOAD,2023-04-27 04:56:53,15.08824873,0.0001268,53.2185,51.5578,95.0657,265.048,0.0001183,1.595e-05,0.0,0 STARLINK-5447,1 54779U 22175X   23117.20617713  .00001595  00000-0  11830-3 0  9996,2 54779  53.2185  51.5578 0001268  95.0657 265.0480 15.08824873 21990,6917.927,95.439,540.669,538.914,0.0
54779.0,STARLINK-5447,PAYLOAD,2023-04-27 19:15:22,15.08837678,0.0001151,53.219,48.8842,125.3576,234.7524,0.00071835,0.00011162,0.0,0 STARLINK-5447,1 54779U 22175X   23117.80234100  .00011162  00000-0  71835-3 0  9999,2 54779  53.2190  48.8842 0001151 125.3576 234.7524 15.08837678 19926,6917.887,95.438,540.549,538.956,0.0
54779.0,STARLINK-5447,PAYLOAD,2023-04-28 01:36:53,15.08861043,0.0001118,53.2188,47.6962,98.1194,261.9925,0.00099477,0.00015588,0.0,0 STARLINK-5447,1 54779U 22175X   23118.06729098  .00015588  00000-0  99477-3 0  9991,2 54779  53.2188  47.6962 0001118  98.1194 261.9925 15.08861043 19963,6917.816,95.436,540.454,538.908,0.0
54779.0,STARLINK-5447,PAYLOAD,2023-04-28 12:44:35,15.0885034,8.46e-05,53.2186,45.6156,74.6058,285.5028,0.00040554,6.174e-05,0.0,0 STARLINK-5447,1 54779U 22175X   23118.53097080  .00006174  00000-0  40554-3 0  9995,2 54779  53.2186  45.6156 0000846  74.6058 285.5028 15.08850340 22192,6917.849,95.437,540.299,539.129,0.0
